SL-3 R/B                
1 13403U 82079B   26083.23420187  .00005535  00000+0  21880-3 0  9992
2 13403  81.1483 175.9049 0025455 116.8379 243.5462 15.24997231379917
SL-14 R/B               
1 13553U 82092B   26083.18107522  .00000425  00000+0  44980-4 0  9992
2 13553  82.5667 127.8438 0018841 251.6790 166.4764 14.86679074331089
SL-3 R/B                
1 13819U 83010B   26083.18863621  .00015069  00000+0  29778-3 0  9994
2 13819  81.1051 344.4674 0016502   2.5031 357.6293 15.46847516360187
SL-3 R/B                
1 14208U 83075B   26083.25533602  .00009956  00000+0  26012-3 0  9995
2 14208  97.6146  88.3882 0021710 172.2903 187.8680 15.38753138332394
COSMOS 1536             
1 14699U 84013A   26083.29693819  .00006709  00000+0  27500-3 0  9999
2 14699  82.5422  93.3242 0012929 225.3149 134.7036 15.24016595274843
SL-14 R/B               
1 14820U 84027B   26082.90126847  .00000514  00000+0  56015-4 0  9991
2 14820  82.5405 231.6819 0016539 287.9081  72.0332 14.85990556249745
SL-8 R/B                
1 15483U 85006B   26083.15206733  .00000332  00000+0  11863-3 0  9995
2 15483  74.0442 234.5338 0017855 148.3519  24.5529 14.37793527156107
SL-12 R/B(2)            
1 15772U 85042D   26083.33549462  .00000161  00000+0  93875-4 0  9999
2 15772  71.1077  56.7834 0032853 103.8562   5.4947 14.21986335116476
SL-14 R/B               
1 15945U 85069B   26083.21831374  .00000534  00000+0  57528-4 0  9992
2 15945  82.5303  11.2748 0019739 140.4885 219.7776 14.86448522174992
SL-16 R/B               
1 16182U 85097B   26083.31117336  .00000162  00000+0  10495-3 0  9991
2 16182  71.0011 109.7710 0009538 242.5096 128.5922 14.16602722 89308
SL-14 R/B               
1 16496U 86006B   26083.19164194  .00000830  00000+0  85613-4 0  9997
2 16496  82.5243 246.0846 0075470 223.8374 135.6839 14.86835905151364
COSMOS 1743             
1 16719U 86034A   26082.95466962  .00042683  00000+0  53262-3 0  9993
2 16719  82.5304  58.8454 0003235 187.8112 172.3095 15.59683616182472
