CCSDS_OMM_VERS = 2.0
CREATION_DATE  = 
ORIGINATOR     = 

OBJECT_NAME    = SL-3 R/B
OBJECT_ID      = 1982-079B
CENTER_NAME    = EARTH
REF_FRAME      = TEME
TIME_SYSTEM    = UTC
MEAN_ELEMENT_THEORY = SGP/SGP4

EPOCH          = 2026-03-24T05:37:15.041568
MEAN_MOTION    = 15.24997231
ECCENTRICITY   = .00254554
INCLINATION    = 81.1483
RA_OF_ASC_NODE = 175.9049
ARG_OF_PERICENTER = 116.8379
MEAN_ANOMALY   = 243.5462

EPHEMERIS_TYPE = 0
CLASSIFICATION_TYPE = U
NORAD_CAT_ID   = 13403
ELEMENT_SET_NO = 999
REV_AT_EPOCH   = 37991
BSTAR          = .21879603E-3
MEAN_MOTION_DOT = .5535E-4
MEAN_MOTION_DDOT = 0

CCSDS_OMM_VERS = 2.0
CREATION_DATE  = 
ORIGINATOR     = 

OBJECT_NAME    = SL-14 R/B
OBJECT_ID      = 1982-092B
CENTER_NAME    = EARTH
REF_FRAME      = TEME
TIME_SYSTEM    = UTC
MEAN_ELEMENT_THEORY = SGP/SGP4

EPOCH          = 2026-03-24T04:20:44.899008
MEAN_MOTION    = 14.86679074
ECCENTRICITY   = .00188411
INCLINATION    = 82.5667
RA_OF_ASC_NODE = 127.8438
ARG_OF_PERICENTER = 251.6790
MEAN_ANOMALY   = 166.4764

EPHEMERIS_TYPE = 0
CLASSIFICATION_TYPE = U
NORAD_CAT_ID   = 13553
ELEMENT_SET_NO = 999
REV_AT_EPOCH   = 33108
BSTAR          = .44980227E-4
MEAN_MOTION_DOT = .425E-5
MEAN_MOTION_DDOT = 0

CCSDS_OMM_VERS = 2.0
CREATION_DATE  = 
ORIGINATOR     = 

OBJECT_NAME    = SL-3 R/B
OBJECT_ID      = 1983-010B
CENTER_NAME    = EARTH
REF_FRAME      = TEME
TIME_SYSTEM    = UTC
MEAN_ELEMENT_THEORY = SGP/SGP4

EPOCH          = 2026-03-24T04:31:38.168544
MEAN_MOTION    = 15.46847516
ECCENTRICITY   = .00165021
INCLINATION    = 81.1051
RA_OF_ASC_NODE = 344.4674
ARG_OF_PERICENTER = 2.5031
MEAN_ANOMALY   = 357.6293

EPHEMERIS_TYPE = 0
CLASSIFICATION_TYPE = U
NORAD_CAT_ID   = 13819
ELEMENT_SET_NO = 999
REV_AT_EPOCH   = 36018
BSTAR          = .2977776E-3
MEAN_MOTION_DOT = .15069E-3
MEAN_MOTION_DDOT = 0

CCSDS_OMM_VERS = 2.0
CREATION_DATE  = 
ORIGINATOR     = 

OBJECT_NAME    = SL-3 R/B
OBJECT_ID      = 1983-075B
CENTER_NAME    = EARTH
REF_FRAME      = TEME
TIME_SYSTEM    = UTC
MEAN_ELEMENT_THEORY = SGP/SGP4

EPOCH          = 2026-03-24T06:07:41.032128
MEAN_MOTION    = 15.38753138
ECCENTRICITY   = .00217102
INCLINATION    = 97.6146
RA_OF_ASC_NODE = 88.3882
ARG_OF_PERICENTER = 172.2903
MEAN_ANOMALY   = 187.8680

EPHEMERIS_TYPE = 0
CLASSIFICATION_TYPE = U
NORAD_CAT_ID   = 14208
ELEMENT_SET_NO = 999
REV_AT_EPOCH   = 33239
BSTAR          = .26011787E-3
MEAN_MOTION_DOT = .9956E-4
MEAN_MOTION_DDOT = 0

CCSDS_OMM_VERS = 2.0
CREATION_DATE  = 
ORIGINATOR     = 

OBJECT_NAME    = COSMOS 1536
OBJECT_ID      = 1984-013A
CENTER_NAME    = EARTH
REF_FRAME      = TEME
TIME_SYSTEM    = UTC
MEAN_ELEMENT_THEORY = SGP/SGP4

EPOCH          = 2026-03-24T07:07:35.459616
MEAN_MOTION    = 15.24016595
ECCENTRICITY   = .00129293
INCLINATION    = 82.5422
RA_OF_ASC_NODE = 93.3242
ARG_OF_PERICENTER = 225.3149
MEAN_ANOMALY   = 134.7036

EPHEMERIS_TYPE = 0
CLASSIFICATION_TYPE = U
NORAD_CAT_ID   = 14699
ELEMENT_SET_NO = 999
REV_AT_EPOCH   = 27484
BSTAR          = .27500359E-3
MEAN_MOTION_DOT = .6709E-4
MEAN_MOTION_DDOT = 0

CCSDS_OMM_VERS = 2.0
CREATION_DATE  = 
ORIGINATOR     = 

OBJECT_NAME    = SL-14 R/B
OBJECT_ID      = 1984-027B
CENTER_NAME    = EARTH
REF_FRAME      = TEME
TIME_SYSTEM    = UTC
MEAN_ELEMENT_THEORY = SGP/SGP4

EPOCH          = 2026-03-23T21:37:49.595808
MEAN_MOTION    = 14.85990556
ECCENTRICITY   = .00165392
INCLINATION    = 82.5405
RA_OF_ASC_NODE = 231.6819
ARG_OF_PERICENTER = 287.9081
MEAN_ANOMALY   = 72.0332

EPHEMERIS_TYPE = 0
CLASSIFICATION_TYPE = U
NORAD_CAT_ID   = 14820
ELEMENT_SET_NO = 999
REV_AT_EPOCH   = 24974
BSTAR          = .56015005E-4
MEAN_MOTION_DOT = .514E-5
MEAN_MOTION_DDOT = 0

CCSDS_OMM_VERS = 2.0
CREATION_DATE  = 
ORIGINATOR     = 

OBJECT_NAME    = SL-8 R/B
OBJECT_ID      = 1985-006B
CENTER_NAME    = EARTH
REF_FRAME      = TEME
TIME_SYSTEM    = UTC
MEAN_ELEMENT_THEORY = SGP/SGP4

EPOCH          = 2026-03-24T03:38:58.617312
MEAN_MOTION    = 14.37793527
ECCENTRICITY   = .00178552
INCLINATION    = 74.0442
RA_OF_ASC_NODE = 234.5338
ARG_OF_PERICENTER = 148.3519
MEAN_ANOMALY   = 24.5529

EPHEMERIS_TYPE = 0
CLASSIFICATION_TYPE = U
NORAD_CAT_ID   = 15483
ELEMENT_SET_NO = 999
REV_AT_EPOCH   = 15610
BSTAR          = .11863412E-3
MEAN_MOTION_DOT = .332E-5
MEAN_MOTION_DDOT = 0

CCSDS_OMM_VERS = 2.0
CREATION_DATE  = 
ORIGINATOR     = 

OBJECT_NAME    = SL-12 R/B(2)
OBJECT_ID      = 1985-042D
CENTER_NAME    = EARTH
REF_FRAME      = TEME
TIME_SYSTEM    = UTC
MEAN_ELEMENT_THEORY = SGP/SGP4

EPOCH          = 2026-03-24T08:03:06.735168
MEAN_MOTION    = 14.21986335
ECCENTRICITY   = .00328535
INCLINATION    = 71.1077
RA_OF_ASC_NODE = 56.7834
ARG_OF_PERICENTER = 103.8562
MEAN_ANOMALY   = 5.4947

EPHEMERIS_TYPE = 0
CLASSIFICATION_TYPE = U
NORAD_CAT_ID   = 15772
ELEMENT_SET_NO = 999
REV_AT_EPOCH   = 11647
BSTAR          = .93874622E-4
MEAN_MOTION_DOT = .161E-5
MEAN_MOTION_DDOT = 0

CCSDS_OMM_VERS = 2.0
CREATION_DATE  = 
ORIGINATOR     = 

OBJECT_NAME    = SL-14 R/B
OBJECT_ID      = 1985-069B
CENTER_NAME    = EARTH
REF_FRAME      = TEME
TIME_SYSTEM    = UTC
MEAN_ELEMENT_THEORY = SGP/SGP4

EPOCH          = 2026-03-24T05:14:22.307136
MEAN_MOTION    = 14.86448522
ECCENTRICITY   = .00197395
INCLINATION    = 82.5303
RA_OF_ASC_NODE = 11.2748
ARG_OF_PERICENTER = 140.4885
MEAN_ANOMALY   = 219.7776

EPHEMERIS_TYPE = 0
CLASSIFICATION_TYPE = U
NORAD_CAT_ID   = 15945
ELEMENT_SET_NO = 999
REV_AT_EPOCH   = 17499
BSTAR          = .57527842E-4
MEAN_MOTION_DOT = .534E-5
MEAN_MOTION_DDOT = 0

CCSDS_OMM_VERS = 2.0
CREATION_DATE  = 
ORIGINATOR     = 

OBJECT_NAME    = SL-16 R/B
OBJECT_ID      = 1985-097B
CENTER_NAME    = EARTH
REF_FRAME      = TEME
TIME_SYSTEM    = UTC
MEAN_ELEMENT_THEORY = SGP/SGP4

EPOCH          = 2026-03-24T07:28:05.378304
MEAN_MOTION    = 14.16602722
ECCENTRICITY   = .00095386
INCLINATION    = 71.0011
RA_OF_ASC_NODE = 109.7710
ARG_OF_PERICENTER = 242.5096
MEAN_ANOMALY   = 128.5922

EPHEMERIS_TYPE = 0
CLASSIFICATION_TYPE = U
NORAD_CAT_ID   = 16182
ELEMENT_SET_NO = 999
REV_AT_EPOCH   = 8930
BSTAR          = .10494719E-3
MEAN_MOTION_DOT = .162E-5
MEAN_MOTION_DDOT = 0

CCSDS_OMM_VERS = 2.0
CREATION_DATE  = 
ORIGINATOR     = 

OBJECT_NAME    = SL-14 R/B
OBJECT_ID      = 1986-006B
CENTER_NAME    = EARTH
REF_FRAME      = TEME
TIME_SYSTEM    = UTC
MEAN_ELEMENT_THEORY = SGP/SGP4

EPOCH          = 2026-03-24T04:35:57.863616
MEAN_MOTION    = 14.86835905
ECCENTRICITY   = .00754708
INCLINATION    = 82.5243
RA_OF_ASC_NODE = 246.0846
ARG_OF_PERICENTER = 223.8374
MEAN_ANOMALY   = 135.6839

EPHEMERIS_TYPE = 0
CLASSIFICATION_TYPE = U
NORAD_CAT_ID   = 16496
ELEMENT_SET_NO = 999
REV_AT_EPOCH   = 15136
BSTAR          = .85613046E-4
MEAN_MOTION_DOT = .83E-5
MEAN_MOTION_DDOT = 0

CCSDS_OMM_VERS = 2.0
CREATION_DATE  = 
ORIGINATOR     = 

OBJECT_NAME    = COSMOS 1743
OBJECT_ID      = 1986-034A
CENTER_NAME    = EARTH
REF_FRAME      = TEME
TIME_SYSTEM    = UTC
MEAN_ELEMENT_THEORY = SGP/SGP4

EPOCH          = 2026-03-23T22:54:43.455168
MEAN_MOTION    = 15.59683616
ECCENTRICITY   = .00032357
INCLINATION    = 82.5304
RA_OF_ASC_NODE = 58.8454
ARG_OF_PERICENTER = 187.8112
MEAN_ANOMALY   = 172.3095

EPHEMERIS_TYPE = 0
CLASSIFICATION_TYPE = U
NORAD_CAT_ID   = 16719
ELEMENT_SET_NO = 999
REV_AT_EPOCH   = 18247
BSTAR          = .53261671E-3
MEAN_MOTION_DOT = .42683E-3
MEAN_MOTION_DDOT = 0

